NORAD_CAT_ID,OBJECT_NAME,OBJECT_TYPE,EPOCH,MEAN_MOTION,ECCENTRICITY,INCLINATION,RA_OF_ASC_NODE,ARG_OF_PERICENTER,MEAN_ANOMALY,BSTAR,MEAN_MOTION_DOT,MEAN_MOTION_DDOT,TLE_LINE0,TLE_LINE1,TLE_LINE2,SEMIMAJOR_AXIS,PERIOD,APOGEE,PERIGEE,DECAYED
56488.0,STARLINK-6204,PAYLOAD,2024-07-04 22:10:40,14.98329914,0.000351,69.9983,209.5534,268.9697,91.106,-2.1095e-05,-3.45e-06,0.0,0 STARLINK-6204,1 56488U 23064AS  24186.92408311 -.00000345  00000-0 -21095-4 0  9990,2 56488  69.9983 209.5534 0003510 268.9697  91.1060 14.98329914 64446,6950.193,96.107,574.498,569.619,0.0
56488.0,STARLINK-6204,PAYLOAD,2024-07-05 04:35:12,14.98330219,0.0003513,69.9983,208.8802,268.8474,91.2283,1.1269e-05,4.1e-07,0.0,0 STARLINK-6204,1 56488U 23064AS  24187.19112195  .00000041  00000-0  11269-4 0  9995,2 56488  69.9983 208.8802 0003513 268.8474  91.2283 14.98330219 64843,6950.192,96.107,574.499,569.616,0.0
56488.0,STARLINK-6204,PAYLOAD,2024-07-05 14:12:01,14.98332755,0.0003514,69.9983,207.8701,268.8467,91.229,4.5261e-06,-3.9e-07,0.0,0 STARLINK-6204,1 56488U 23064AS  24187.59167999 -.00000039  00000-0  45261-5 0  9999,2 56488  69.9983 207.8701 0003514 268.8467  91.2290 14.98332755 64545,6950.184,96.107,574.492,569.607,0.0
56488.0,STARLINK-6204,PAYLOAD,2024-07-05 22:12:41,14.98330236,0.0003513,69.9983,207.0284,268.7377,91.3379,-2.9378e-05,-4.44e-06,0.0,0 STARLINK-6204,1 56488U 23064AS  24187.92548206 -.00000444  00000-0 -29378-4 0  9991,2 56488  69.9983 207.0284 0003513 268.7377  91.3379 14.98330236 64597,6950.192,96.107,574.499,569.616,0.0
56488.0,STARLINK-6204,PAYLOAD,2024-07-06 04:37:13,14.98328396,0.0003515,69.9983,206.3551,268.6417,91.4339,-1.3187e-07,-9.5e-07,0.0,0 STARLINK-6204,1 56488U 23064AS  24188.19252250 -.00000095  00000-0 -13187-6 0  9997,2 56488  69.9983 206.3551 0003515 268.6417  91.4339 14.98328396 64997,6950.198,96.107,574.506,569.62,0.0
56488.0,STARLINK-6204,PAYLOAD,2024-07-06 11:01:46,14.98329978,0.0003522,69.9984,205.6818,268.6131,91.4625,9.1554e-06,1.6e-07,0.0,0 STARLINK-6204,1 56488U 23064AS  24188.45956129  .00000016  00000-0  91554-5 0  9996,2 56488  69.9984 205.6818 0003522 268.6131  91.4625 14.98329978 64677,6950.193,96.107,574.506,569.61,0.0
56488.0,STARLINK-6204,PAYLOAD,2024-07-06 19:02:26,14.98330198,0.0003521,69.9984,204.8401,268.7167,91.3589,-1.0551e-05,-2.19e-06,0.0,0 STARLINK-6204,1 56488U 23064AS  24188.79336140 -.00000219  00000-0 -10551-4 0  9992,2 56488  69.9984 204.8401 0003521 268.7167  91.3589 14.98330198 64725,6950.192,96.107,574.504,569.61,0.0
56488.0,STARLINK-6204,PAYLOAD,2024-07-07 04:39:14,14.98329036,0.0003519,69.9984,203.8302,268.4854,91.5902,1.369e-05,7e-07,0.0,0 STARLINK-6204,1 56488U 23064AS  24189.19392140  .00000070  00000-0  13690-4 0  9999,2 56488  69.9984 203.8302 0003519 268.4854  91.5902 14.98329036 65148,6950.196,96.107,574.507,569.615,0.0
56488.0,STARLINK-6204,PAYLOAD,2024-07-07 12:39:55,14.98330438,0.0003524,69.9985,202.9886,268.7387,91.3368,8.884e-06,1.3e-07,0.0,0 STARLINK-6204,1 56488U 23064AS  24189.52772071  .00000013  00000-0  88840-5 0  9998,2 56488  69.9985 202.9886 0003524 268.7387  91.3368 14.98330438 64833,6950.192,96.107,574.506,569.607,0.0
56488.0,STARLINK-6204,PAYLOAD,2024-07-08 11:05:47,14.98330974,0.0003504,69.9992,200.6323,268.9236,91.1521,2.315e-05,1.83e-06,0.0,0 STARLINK-6204,1 56488U 23064AS  24190.46235979  .00000183  00000-0  23150-4 0  9994,2 56488  69.9992 200.6323 0003504 268.9236  91.1521 14.98330974 65335,6950.19,96.107,574.49,569.62,0.0
56488.0,STARLINK-6204,PAYLOAD,2024-07-08 17:30:20,14.98330232,0.0003489,69.9993,199.9591,269.0866,90.9893,1.8915e-05,1.33e-06,0.0,0 STARLINK-6204,1 56488U 23064AS  24190.72940021  .00000133  00000-0  18915-4 0  9992,2 56488  69.9993 199.9591 0003489 269.0866  90.9893 14.98330232 65017,6950.192,96.107,574.482,569.632,0.0
56488.0,STARLINK-6204,PAYLOAD,2024-07-09 09:31:40,14.9833098,0.000346,69.9993,198.276,269.3254,90.7508,2.2042e-05,1.7e-06,0.0,0 STARLINK-6204,1 56488U 23064AS  24191.39699915  .00000170  00000-0  22042-4 0  9996,2 56488  69.9993 198.2760 0003460 269.3254  90.7508 14.98330980 65112,6950.19,96.107,574.46,569.65,0.0
56488.0,STARLINK-6204,PAYLOAD,2024-07-10 04:45:17,14.98328612,0.0003453,69.9992,196.2563,268.5298,91.5466,-2.2469e-05,-3.61e-06,0.0,0 STARLINK-6204,1 56488U 23064AS  24192.19812160 -.00000361  00000-0 -22469-4 0  9991,2 56488  69.9992 196.2563 0003453 268.5298  91.5466 14.98328612 65594,6950.197,96.107,574.462,569.662,0.0
56488.0,STARLINK-6204,PAYLOAD,2024-07-10 09:33:41,14.98328598,0.0003457,69.9993,195.7513,269.0123,91.064,-2.0886e-05,-3.42e-06,0.0,0 STARLINK-6204,1 56488U 23064AS  24192.39840169 -.00000342  00000-0 -20886-4 0  9993,2 56488  69.9993 195.7513 0003457 269.0123  91.0640 14.98328598 65267,6950.197,96.107,574.465,569.66,0.0
56488.0,STARLINK-6204,PAYLOAD,2024-07-11 04:47:18,14.98329522,0.000346,69.9993,193.7317,269.1239,90.9524,-1.3378e-05,-2.53e-06,0.0,0 STARLINK-6204,1 56488U 23064AS  24193.19952105 -.00000253  00000-0 -13378-4 0  9995,2 56488  69.9993 193.7317 0003460 269.1239  90.9524 14.98329522 65740,6950.194,96.107,574.464,569.655,0.0
56488.0,STARLINK-6204,PAYLOAD,2024-07-11 09:35:42,14.98330336,0.0003456,69.9993,193.2267,269.058,91.0183,-6.8925e-06,-1.75e-06,0.0,0 STARLINK-6204,1 56488U 23064AS  24193.39980033 -.00000175  00000-0 -68925-5 0  9990,2 56488  69.9993 193.2267 0003456 269.0580  91.0183 14.98330336 65414,6950.192,96.107,574.459,569.655,0.0
56488.0,STARLINK-6204,PAYLOAD,2024-07-11 17:36:23,14.98329818,0.0003523,69.9991,192.3849,269.6115,90.464,1.9071e-05,1.34e-06,0.0,0 STARLINK-6204,1 56488U 23064AS  24193.73359972  .00000134  00000-0  19071-4 0  9990,2 56488  69.9991 192.3849 0003523 269.6115  90.4640 14.98329818 65462,6950.193,96.107,574.507,569.61,0.0
56488.0,STARLINK-6204,PAYLOAD,2024-07-12 04:49:19,14.98329893,0.0003518,69.9992,191.2066,269.1675,90.9081,3.0052e-05,2.66e-06,0.0,0 STARLINK-6204,1 56488U 23064AS  24194.20091941  .00000266  00000-0  30052-4 0  9990,2 56488  69.9992 191.2066 0003518 269.1675  90.9081 14.98329893 65896,6950.193,96.107,574.503,569.613,0.0
56488.0,STARLINK-6204,PAYLOAD,2024-07-12 09:37:43,14.98331462,0.0003505,69.9992,190.7016,269.0068,91.0689,4.5985e-05,4.56e-06,0.0,0 STARLINK-6204,1 56488U 23064AS  24194.40119789  .00000456  00000-0  45985-4 0  9995,2 56488  69.9992 190.7016 0003505 269.0068  91.0689 14.98331462 65561,6950.188,96.107,574.489,569.617,0.0
56488.0,STARLINK-6204,PAYLOAD,2024-07-12 17:38:23,14.98329554,0.0003466,69.9993,189.8597,269.0571,91.0191,2.3171e-05,1.83e-06,0.0,0 STARLINK-6204,1 56488U 23064AS  24194.73499961  .00000183  00000-0  23171-4 0  9994,2 56488  69.9993 189.8597 0003466 269.0571  91.0191 14.98329554 65613,6950.194,96.107,574.468,569.65,0.0
56488.0,STARLINK-6204,PAYLOAD,2024-07-13 04:51:20,14.98328807,0.0003465,69.9993,188.6815,268.8538,91.2224,-2.0425e-06,-1.17e-06,0.0,0 STARLINK-6204,1 56488U 23064AS  24195.20232081 -.00000117  00000-0 -20425-5 0  9994,2 56488  69.9993 188.6815 0003465 268.8538  91.2224 14.98328807 66049,6950.197,96.107,574.47,569.653,0.0
56488.0,STARLINK-6204,PAYLOAD,2024-07-13 09:39:44,14.98330442,0.0003479,69.9992,188.1767,269.2198,90.8562,1.4673e-05,8.2e-07,0.0,0 STARLINK-6204,1 56488U 23064AS  24195.40259931  .00000082  00000-0  14673-4 0  9995,2 56488  69.9992 188.1767 0003479 269.2198  90.8562 14.98330442 65712,6950.192,96.107,574.474,569.639,0.0
56488.0,STARLINK-6204,PAYLOAD,2024-07-13 22:28:49,14.98331319,0.0003473,69.9993,186.8302,269.1417,90.9344,9.5993e-06,2.1e-07,0.0,0 STARLINK-6204,1 56488U 23064AS  24195.93667855  .00000021  00000-0  95993-5 0  9999,2 56488  69.9993 186.8302 0003473 269.1417  90.9344 14.98331319 65791,6950.189,96.107,574.468,569.64,0.0
56488.0,STARLINK-6204,PAYLOAD,2024-07-14 04:53:21,14.98331581,0.0003476,69.9993,186.157,269.0899,90.9861,1.2453e-05,5.6e-07,0.0,0 STARLINK-6204,1 56488U 23064AS  24196.20371799  .00000056  00000-0  12453-4 0  9996,2 56488  69.9993 186.1570 0003476 269.0899  90.9861 14.98331581 66197,6950.188,96.107,574.469,569.637,0.0
56488.0,STARLINK-6204,PAYLOAD,2024-07-14 09:41:45,14.98334831,0.0003465,69.9993,185.652,269.1908,90.8854,3.0811e-05,2.75e-06,0.0,0 STARLINK-6204,1 56488U 23064AS  24196.40399496  .00000275  00000-0  30811-4 0  9993,2 56488  69.9993 185.6520 0003465 269.1908  90.8854 14.98334831 65861,6950.178,96.107,574.451,569.635,0.0
56488.0,STARLINK-6204,PAYLOAD,2024-07-14 16:06:17,14.98331731,0.0003428,69.9995,184.9788,269.4564,90.6203,1.7883e-05,1.2e-06,0.0,0 STARLINK-6204,1 56488U 23064AS  24196.67103674  .00000120  00000-0  17883-4 0  9996,2 56488  69.9995 184.9788 0003428 269.4564  90.6203 14.98331731 65908,6950.188,96.107,574.435,569.67,0.0
56488.0,STARLINK-6204,PAYLOAD,2024-07-15 04:55:22,14.98330457,0.0003382,69.9996,183.6323,270.0775,89.9996,1.4841e-05,8.4e-07,0.0,0 STARLINK-6204,1 56488U 23064AS  24197.20511735  .00000084  00000-0  14841-4 0  9997,2 56488  69.9996 183.6323 0003382 270.0775  89.9996 14.98330457 66344,6950.191,96.107,574.407,569.706,0.0
56488.0,STARLINK-6204,PAYLOAD,2024-07-15 09:43:46,14.98332114,0.0003354,69.9997,183.1274,269.8899,90.1875,4.1033e-05,3.97e-06,0.0,0 STARLINK-6204,1 56488U 23064AS  24197.40539537  .00000397  00000-0  41033-4 0  9999,2 56488  69.9997 183.1274 0003354 269.8899  90.1875 14.98332114 66013,6950.186,96.107,574.382,569.72,0.0
56488.0,STARLINK-6204,PAYLOAD,2024-07-16 04:57:23,14.98330796,0.0003285,69.9999,181.1082,267.1646,92.9137,-1.1368e-05,-2.29e-06,0.0,0 STARLINK-6204,1 56488U 23064AS  24198.20651667 -.00000229  00000-0 -11368-4 0  9991,2 56488  69.9999 181.1082 0003285 267.1646  92.9137 14.98330796 66491,6950.19,96.107,574.339,569.772,0.0
56488.0,STARLINK-6204,PAYLOAD,2024-07-16 08:09:39,14.98331775,0.0003272,69.9999,180.7715,267.5861,92.4924,-3.524e-07,-9.7e-07,0.0,0 STARLINK-6204,1 56488U 23064AS  24198.34003564 -.00000097  00000-0 -35240-6 0  9993,2 56488  69.9999 180.7715 0003272 267.5861  92.4924 14.98331775 66158,6950.187,96.107,574.327,569.778,0.0
